[{"OBJECT_NAME":"ION SCV-008","OBJECT_ID":"2023-001AU","EPOCH":"2026-03-09T19:46:58.662912","MEAN_MOTION":15.2722664,"ECCENTRICITY":0.00151921,"INCLINATION":97.5676,"RA_OF_ASC_NODE":163.606,"ARG_OF_PERICENTER":8.542,"MEAN_ANOMALY":351.6074,"EPHEMERIS_TYPE":0,"CLASSIFICATION_TYPE":"U","NORAD_CAT_ID":55051,"ELEMENT_SET_NO":999,"REV_AT_EPOCH":17616,"BSTAR":0.00031422806,"MEAN_MOTION_DOT":8.336e-5,"MEAN_MOTION_DDOT":0},{"OBJECT_NAME":"STARLINK-32894","OBJECT_ID":"2025-029X","EPOCH":"2026-03-09T21:47:05.339616","MEAN_MOTION":15.3021001,"ECCENTRICITY":0.00010171,"INCLINATION":53.1604,"RA_OF_ASC_NODE":231.2509,"ARG_OF_PERICENTER":100.0958,"MEAN_ANOMALY":260.0157,"EPHEMERIS_TYPE":0,"CLASSIFICATION_TYPE":"U","NORAD_CAT_ID":62969,"ELEMENT_SET_NO":999,"REV_AT_EPOCH":6135,"BSTAR":0.0011166665,"MEAN_MOTION_DOT":0.0003287,"MEAN_MOTION_DDOT":0}]
